HORYU-4                 
1 41340U 16012D   19308.46283006  .00000483  00000-0  29923-4 0  9996
2 41340  31.0058 330.8071 0013975  65.7667 294.4428 15.01350004203888
E-ST@R-II               
1 41459U 16025D   19308.70666079  .00001026  00000-0  56728-4 0  9990
2 41459  98.0989  42.2017 0165345 250.8605 107.4653 15.05759763193461
AAUSAT 4                
1 41460U 16025E   19308.57054026  .00001689  00000-0  88085-4 0  9996
2 41460  98.0940  43.6656 0155397 242.5628 115.9713 15.07769148193598
DIWATA-1                
1 41463U 98067HT  19308.86638269  .00038705  00000-0  13449-3 0  9994
2 41463  51.6269 240.8627 0002679  96.9589 303.0025 15.89003167201846
BEESAT-4                
1 41619U 16040W   19308.12312267  .00001354  00000-0  59754-4 0  9994
2 41619  97.3520   7.6692 0009657 254.2068 105.8105 15.23429297174931
CANX-7                  
1 41788U 16059F   19308.82436864  .00008219  00000-0  12115-2 0  9993
2 41788  98.2455  26.6239 0024527 284.4940  75.3476 14.75406239166514
RAVAN                   
1 41849U 16067B   19307.83629724  .00001221  00000-0  10764-3 0  9994
2 41849  97.9256  49.0550 0006364 278.5151  81.5350 14.98349351162689
CELTEE 1                
1 41850U 16067C   19308.23162400  .00000823  00000-0  76631-4 0  9997
2 41850  97.9211  47.8117 0007072 283.3514  76.6918 14.97071600162651
OPTICUBE 04             
1 41851U 16067D   19307.85820025 -.00000434  00000-0 -32521-4 0  9999
2 41851  97.9203  47.1660 0007650 288.8437  71.1954 14.96848565162588
AEROCUBE 8D             
1 41852U 16067E   19308.53684665  .00000022  00000-0  72476-5 0  9999
2 41852  97.9206  47.6793 0008498 284.4999  75.5279 14.96780238162669
AEROCUBE 8C             
1 41853U 16067F   19308.49624339  .00000822  00000-0  77212-4 0  9997
2 41853  97.9209  47.5627 0008360 286.0612  73.9688 14.96747686162651
PROMETHEUS 2-1          
1 41854U 16067G   19308.24161338  .00000666  00000-0  63180-4 0  9991
2 41854  97.9223  47.5045 0008637 287.0817  72.9458 14.97002982162622
PROMETHEUS 2-3          
1 41855U 16067H   19307.84237302  .00000638  00000-0  60731-4 0  9990
2 41855  97.9226  47.1215 0008834 288.9975  71.0289 14.97009469162567
INS-1B                  
1 41954U 17008G   19308.16103471  .00001215  00000-0  52666-4 0  9991
2 41954  97.3850  11.2920 0009734  28.2955 331.8809 15.24234649150891
BGUSAT                  
1 41999U 17008BD  19307.67956042  .00002065  00000-0  81627-4 0  9998
2 41999  97.3937  13.7963 0008965  42.2033 317.9894 15.26587492150346
DIDO-2                  
1 42000U 17008BE  19308.22348878  .00000865  00000-0  38477-4 0  9997
2 42000  97.3863  11.9044 0009584  45.5070 314.6949 15.24103337150304
PEASSS                  
1 42015U 17008BV  19308.49144110  .00001108  00000-0  47065-4 0  9999
2 42015  97.3876  13.3487 0007545  51.1731 309.0179 15.25121367150906
AL-FARABI 1             
1 42016U 17008BW  19308.49560831  .00001455  00000-0  59685-4 0  9998
2 42016  97.3893  14.0618 0007384  50.7489 309.4403 15.25824262151062
NAYIF-1 (EO-88)         
1 42017U 17008BX  19307.82420099  .00001495  00000-0  61171-4 0  9993
2 42017  97.3890  13.4094 0007447  52.6836 307.5080 15.25858519150980
ALTAIR PATHFINDER       
1 42711U 98067LS  19308.38979102  .00154043  21023-4  31290-3 0  9992
2 42711  51.6278 283.7803 0004281  70.3780 289.7691 15.99175164141115
NSIGHT                  
1 42726U 98067MF  19308.49866485  .00035139  00000-0  20509-3 0  9992
2 42726  51.6335 315.8749 0005419  16.9557 343.1624 15.78034015139689
UCLSAT                  
1 42765U 17036A   19308.11619718  .00001211  00000-0  54351-4 0  9993
2 42765  97.3348   3.0593 0013105 101.8526 258.4181 15.23007192131535
LITUANICASAT-2          
1 42768U 17036D   19308.41210917  .00001754  00000-0  76790-4 0  9990
2 42768  97.3389   3.0451 0016674  92.8792 267.4353 15.23230722131420
AALTO-1                 
1 42775U 17036L   19307.84657953  .00000744  00000-0  36014-4 0  9992
2 42775  97.3329   1.2156 0015656  95.3551 264.9471 15.21511847131212
URSA MAIOR              
1 42776U 17036M   19308.78112740  .00000862  00000-0  41037-4 0  9999
2 42776  97.3339   2.3209 0015485  92.3782 267.9227 15.21662662131368
COMPASS 2               
1 42777U 17036N   19308.62189853  .00001571  00000-0  69117-4 0  9999
2 42777  97.3384   3.7159 0014162  93.1590 267.1268 15.23244453131414
DIAMOND RED             
1 42783U 17036U   19307.81804954  .00000982  00000-0  45372-4 0  9994
2 42783  97.3347   2.2537 0013808 104.2294 256.0477 15.22416361131265
PEGASUS                 
1 42784U 17036V   19307.83525650  .00001135  00000-0  51507-4 0  9998
2 42784  97.3353   2.5596 0013670 103.5128 256.7633 15.22739359131284
DIAMOND GREEN           
1 42785U 17036W   19307.88262740  .00000971  00000-0  44906-4 0  9994
2 42785  97.3350   2.3448 0013702 104.4856 255.7901 15.22416097131345
DIAMOND BLUE            
1 42786U 17036X   19308.40760561  .00000969  00000-0  44807-4 0  9995
2 42786  97.3348   2.8542 0013558 103.1150 257.1601 15.22417556131349
NUDTSAT                 
1 42787U 17036Y   19307.93850472  .00002482  00000-0  10571-3 0  9996
2 42787  97.3373   3.5796 0013040 100.0714 260.1993 15.23828648131195
SUCHAI                  
1 42788U 17036Z   19307.73739225  .00001326  00000-0  58875-4 0  9993
2 42788  97.3358   2.8610 0013237 102.8319 257.4398 15.23198781131360
SKCUBE                  
1 42789U 17036AA  19307.82861384  .00001244  00000-0  55606-4 0  9994
2 42789  97.3353   2.8639 0013110 102.6817 257.5887 15.23080093131290
VZLUSAT-1               
1 42790U 17036AB  19307.79448095  .00001643  00000-0  70986-4 0  9993
2 42790  97.3373   3.4388 0012631 101.6456 258.6200 15.23812374131327
ROBUSTA-1B              
1 42792U 17036AD  19307.87529184  .00001226  00000-0  54602-4 0  9997
2 42792  97.3355   3.0938 0012685 102.9379 257.3276 15.23258327131324
CICERO 6                
1 42793U 17036AE  19307.84321319  .00000855  00000-0  39496-4 0  9996
2 42793  97.3335   2.7268 0011956 104.7111 255.5451 15.22770238131378
D-SAT                   
1 42794U 17036AF  19308.11155195  .00000287  00000-0  30094-4 0  9999
2 42794  97.5238 346.6081 0127415  40.7930 320.2743 14.91160693128960
CORVUS BC2              
1 42846U 17042X   19308.17054809  .00000339  00000-0  38637-4 0  9999
2 42846  97.5474 196.5124 0008630 320.9336  39.1259 14.92019815125662
CORVUS BC1              
1 42847U 17042Y   19308.78507885  .00000275  00000-0  32269-4 0  9998
2 42847  97.5474 197.2307 0008216 318.4006  41.6588 14.92120760125755
MIRATA                  
1 43015U 17073C   19308.77584629  .00001307  00000-0  10585-3 0  9993
2 43015  97.7181 224.5725 0256072  64.5997 298.1485 14.79195108105858
MAKERSAT 0              
1 43016U 17073D   19307.73291662  .00000878  00000-0  72730-4 0  9994
2 43016  97.7214 223.7733 0258447  68.5684 294.2883 14.78888540105689
ASTERIA                 
1 43020U 98067NH  19308.52289177  .00039482  00000-0  23677-3 0  9995
2 43020  51.6401 327.6152 0002115   3.5725 356.5291 15.77380762111713
DELLINGR (RBLE)         
1 43021U 98067NJ  19308.67930929  .00009938  00000-0  10311-3 0  9994
2 43021  51.6385 348.8151 0001551 299.5274  60.5567 15.65360399111447
AEROCUBE 7B (OCSD B)    
1 43042U 17071F   19308.43145082  .00003373  00000-0  87381-4 0  9994
2 43042  51.6375  94.2740 0004004 302.1673  57.8923 15.41977822107488
AEROCUBE 7C (OCSD C)    
1 43043U 17071G   19308.04268124  .00003223  00000-0  83965-4 0  9993
2 43043  51.6375  96.1929 0004241 305.5531  54.5059 15.41964351107399
CHEFSAT                 
1 43044U 17071H   19308.42274810  .00005167  00000-0  11577-3 0  9993
2 43044  51.6388  86.1491 0004116 305.4999  54.5603 15.45207748107563
ASGARDIA 1              
1 43049U 17071N   19307.98385892  .00002872  00000-0  75560-4 0  9994
2 43049  51.6385  95.8443 0001912 328.9288  31.1584 15.42085643107385
ISARA                   
1 43050U 17071P   19308.41985611  .00005274  00000-0  12026-3 0  9996
2 43050  51.6371  87.5657 0001782 325.0092  35.0778 15.44631925107530
PROPCUBE 2 (FAUNA)      
1 43052U 17071R   19308.80496664  .00004125  00000-0  10322-3 0  9997
2 43052  51.6382  90.8467 0001843 328.3568  31.7307 15.42423676107522
CORVUS BC3              
1 43118U 18004H   19308.30980430  .00000751  00000-0  34914-4 0  9996
2 43118  97.4725  15.1108 0011841 121.8740 238.3650 15.23023977100576
MICROMAS-2A             
1 43131U 18004W   19307.99533857  .00001761  00000-0  74502-4 0  9991
2 43131  97.4758  15.8238 0010742 123.3626 236.8641 15.24505018100583
SPACEBEE-4              
1 43139U 18004AE  19308.45972188  .00002268  00000-0  92363-4 0  9993
2 43139  97.4779  16.9924 0010218 123.8237 236.3975 15.25498948100689
SPACEBEE-3              
1 43140U 18004AF  19308.18961836  .00002879  00000-0  11427-3 0  9992
2 43140  97.4789  17.1043 0009967 124.1466 236.0719 15.26140140100675
SPACEBEE-2              
1 43141U 18004AG  19308.47014811  .00002984  00000-0  11755-3 0  9998
2 43141  97.4801  17.5179 0009958 122.9022 237.3175 15.26362734100720
SPACEBEE-1              
1 43142U 18004AH  19308.48231005  .00003300  00000-0  12871-3 0  9999
2 43142  97.4801  17.6780 0009967 123.0518 237.1679 15.26611008100720
CICERO 7                
1 43143U 18004AJ  19308.33606968  .00001669  00000-0  70580-4 0  9996
2 43143  97.4741  16.3755 0008789 129.1914 231.0106 15.24613088100658
GOMX-4B                 
1 43196U 18015E   19308.57337798  .00000454  00000-0  21612-4 0  9997
2 43196  97.4090  74.3199 0018630 175.3552 184.7859 15.24055263 97497
GOMX-4A                 
1 43197U 18015F   19308.69696030  .00000526  00000-0  24461-4 0  9993
2 43197  97.4102  74.4808 0019118 174.8109 293.8417 15.24176743 97527
1KUNS-PF                
1 43466U 98067NP  19308.54644522  .00030083  00000-0  22797-3 0  9990
2 43466  51.6364 347.1003 0002331  13.8456 346.2605 15.72102473 84712
